GLOBALSTAR M035         
1 25851U 99037A   25066.66827435  .00000000  00000+0  23993-2 0  9996
2 25851  51.9935 281.3670 0013751 173.1903 229.2343 11.04536817 85041
GLOBALSTAR M032         
1 25852U 99037B   25067.48577389  .00000035  00000+0  32555-2 0  9990
2 25852  51.9931 111.6833 0011081 358.4793   1.5971 11.19061970123560
GLOBALSTAR M051         
1 25853U 99037C   25065.31485560 -.00000043  00000+0  72073-3 0  9990
2 25853  51.9789 289.0640 0001569  53.8630 306.2326 11.42204452120638
GLOBALSTAR M030         
1 25854U 99037D   25067.27106922 -.00000081  00000+0 -12573-3 0  9992
2 25854  51.9862  96.8613 0003857 225.6887 134.3614 11.55099959138389
GLOBALSTAR M048         
1 25872U 99041A   25067.11486788 -.00000063  00000+0  19916-3 0  9998
2 25872  51.9347 215.8430 0013082  14.4001 156.9169 11.33855076113519
GLOBALSTAR M026         
1 25873U 99041B   25067.19015419  .00000039  00000+0  38044-2 0  9990
2 25873  52.0032  39.2175 0001746  91.2459   3.1457 11.06829415137305
GLOBALSTAR M043         
1 25874U 99041C   25067.15405221 -.00000016  00000+0  15431-2 0  9992
2 25874  51.9427 319.3729 0013651 137.6185  32.2310 11.25691287111496
GLOBALSTAR M028         
1 25875U 99041D   25067.20858074 -.00000087  00000+0  86742-4 0  9990
2 25875  51.9616 134.1645 0063382 211.7040 147.9996 12.50578532177545
